IRIDIUM 39              
1 25042U 97069D   25097.90583510  .00001705  00000+0  44290-3 0  9992
2 25042  86.3902 241.2457 0018093 175.2868 184.8510 14.49085067438787
IRIDIUM 38              
1 25043U 97069E   25097.89189774  .00001039  00000+0  33724-3 0  9995
2 25043  86.3909 262.7313 0001898  34.5760 325.5561 14.38025171435850
IRIDIUM 42              
1 25077U 97077A   25097.74224132  .00000976  00000+0  32779-3 0  9991
2 25077  86.3906 268.8831 0002042  71.0215 289.1203 14.36267163431085
IRIDIUM 44              
1 25078U 97077B   25097.88678863  .00001040  00000+0  32313-3 0  9998
2 25078  86.3929 250.9158 0000492 149.4088 210.7140 14.40156542433614
IRIDIUM 45              
1 25104U 97082A   25097.98630284  .00022331  00000+0  86799-3 0  9993
2 25104  86.3548  81.9062 0120745 233.1052 125.9079 15.19301588441620
IRIDIUM 24              
1 25105U 97082B   25098.08876142  .00001025  00000+0  30664-3 0  9998
2 25105  86.3856 110.0440 0009697 318.8677  41.1791 14.41998752433364
IRIDIUM 51              
1 25262U 98018A   25098.43752901  .00041845  00000+0  10822-2 0  9994
2 25262  86.3810  90.2266 0099111 155.3486 205.2552 15.33939162436537
IRIDIUM 57              
1 25273U 98019B   25098.20481777  .00000730  00000+0  24558-3 0  9992
2 25273  86.4026 174.5645 0002184  93.4706 266.6741 14.35831642414955
